0 CZ-4 DEB
1 26310U 99057GT  13282.47095388  .00001016  00000-0  32922-3 0  2422
2 26310 098.4377 233.5277 0101949 226.2521 275.4835 14.38218948709294
0 CZ-4 DEB
1 26310U 99057GT  13286.83678865  .00001055  00000-0  34093-3 0  2449
2 26310 098.4387 237.8180 0102182 213.0955 200.1012 14.38225813709921
0 CZ-4 DEB
1 26310U 99057GT  13288.85449219  .00001277  00000-0  40961-3 0  2450
2 26310 098.4393 239.8007 0102328 207.0382 207.0277 14.38232515710217
0 CZ-4 DEB
1 26310U 99057GT  13291.44168042  .00001170  00000-0  37623-3 0  2465
2 26310 098.4401 242.3434 0102478 199.2838 282.5852 14.38239438710582
0 CZ-4 DEB
1 26310U 99057GT  13293.45910355  .00001340  00000-0  42869-3 0  2478
2 26310 098.4403 244.3264 0102631 193.2267 288.1537 14.38244309710875
0 CZ-4 DEB
1 26310U 99057GT  13295.88350838  .00001403  00000-0  44802-3 0  2481
2 26310 098.4403 246.7096 0102834 185.9634 240.9768 14.38250967711224
